     2.100          NAVIGATION                              RINEX VERSION / TYPE
fic2rin                                 11/16/2014 00:20:58 PGM / RUN BY / DATE
                                                            END OF HEADER
15 14 11 15  4  0  0.0 -.214642379433D-03 -.227373675443D-11  .000000000000D+00
     .960000000000D+02  .167187500000D+02  .535736601294D-08 -.191536031566D+01
     .575557351112D-06  .683215970639D-02  .592693686485D-05  .515379834747D+04
     .532800000000D+06  .279396772385D-07 -.265829182512D+01 -.894069671631D-07
     .935332670989D+00  .251375000000D+03  .306742674755D+00 -.846713840459D-08
    -.642883921553D-11  .100000000000D+01  .181800000000D+04  .000000000000D+00
     .240000000000D+01  .000000000000D+00 -.102445483208D-07  .960000000000D+02
     .525606000000D+06  .400000000000D+01
16 14 11 15  4  0  0.0 -.180674251169D-03  .284217094304D-11  .000000000000D+00
     .680000000000D+02  .124062500000D+02  .393302096897D-08 -.168847880552D+00
     .609084963799D-06  .772365240846D-02  .697374343872D-05  .515369560432D+04
     .532800000000D+06  .633299350739D-07 -.459898109562D+00  .409781932831D-07
     .989490776034D+00  .258781250000D+03  .230709786812D+00 -.793318759196D-08
     .810748056625D-10  .100000000000D+01  .181800000000D+04  .000000000000D+00
     .240000000000D+01  .000000000000D+00 -.102445483208D-07  .680000000000D+02
     .525606000000D+06  .400000000000D+01
17 14 11 15  4  0  0.0 -.137629453093D-03 -.250111042988D-11  .000000000000D+00
     .102000000000D+03 -.416250000000D+02  .452447417680D-08 -.107820463288D+01
    -.209547579288D-05  .969742168672D-02  .594183802605D-05  .515366857719D+04
     .532800000000D+06  .894069671631D-07  .569050582144D+00  .223517417908D-06
     .970502459243D+00  .271031250000D+03 -.208363095799D+01 -.817676916669D-08
    -.996470078407D-10  .100000000000D+01  .181800000000D+04  .000000000000D+00
     .240000000000D+01  .000000000000D+00 -.107102096081D-07  .102000000000D+03
     .525606000000D+06  .400000000000D+01
18 14 11 15  4  0  0.0  .358383636922D-03  .261479726760D-11  .000000000000D+00
     .820000000000D+02  .310000000000D+02  .546629912187D-08  .403961673985D+00
     .162236392498D-05  .154792139074D-01  .850111246109D-05  .515374173164D+04
     .532800000000D+06 -.219792127609D-06  .260573487806D+01  .875443220139D-07
     .925519441383D+00  .199250000000D+03 -.200356805697D+01 -.871536302985D-08
     .116790579082D-09  .100000000000D+01  .181800000000D+04  .000000000000D+00
     .240000000000D+01  .000000000000D+00 -.111758708954D-07  .820000000000D+02
     .525606000000D+06  .400000000000D+01
19 14 11 15  4  0  0.0 -.488162506372D-03 -.170530256582D-11  .000000000000D+00
     .440000000000D+02 -.447812500000D+02  .441161233279D-08 -.193512223962D+01
    -.233575701714D-05  .106919133104D-01  .579096376896D-05  .515366720963D+04
     .532800000000D+06  .521540641785D-07  .619286641854D+00 -.135973095894D-06
     .967559994095D+00  .271187500000D+03  .512190891652D+00 -.800140471919D-08
     .939324840936D-10  .100000000000D+01  .181800000000D+04  .000000000000D+00
     .240000000000D+01  .000000000000D+00 -.149011611938D-07  .440000000000D+02
     .525606000000D+06  .400000000000D+01
20 14 11 15  4  0  0.0  .256710685790D-03  .420641299570D-11  .000000000000D+00
     .270000000000D+02  .317500000000D+02  .531593571577D-08  .924249123783D+00
     .156834721565D-05  .622521748301D-02  .840984284878D-05  .515369444656D+04
     .532800000000D+06 -.108033418655D-06  .255286153108D+01  .186264514923D-08
     .926595326929D+00  .198156250000D+03  .133348860828D+01 -.853106963901D-08
     .126433837905D-09  .100000000000D+01  .181800000000D+04  .000000000000D+00
     .240000000000D+01  .000000000000D+00 -.838190317154D-08  .270000000000D+02
     .525606000000D+06  .400000000000D+01
21 14 11 15  4  0  0.0 -.394938047975D-03 -.204636307899D-11  .000000000000D+00
     .460000000000D+02 -.584687500000D+02  .512235622384D-08  .136651475488D+01
    -.312924385071D-05  .217459048145D-01  .969506800175D-05  .515366851997D+04
     .532800000000D+06 -.460073351860D-06  .156129285985D+01 -.188127160072D-06
     .932644240102D+00  .186250000000D+03 -.197860075595D+01 -.855178478759D-08
    -.117504894551D-09  .100000000000D+01  .181800000000D+04  .000000000000D+00
     .240000000000D+01  .000000000000D+00 -.116415321827D-07  .460000000000D+02
     .525606000000D+06  .400000000000D+01
22 14 11 15  4  0  0.0  .287110451609D-03  .363797880709D-11  .000000000000D+00
     .940000000000D+02  .299687500000D+02  .548308553538D-08 -.122928545382D+00
     .162422657013D-05  .729818467516D-02  .839307904243D-05  .515371675110D+04
     .532800000000D+06 -.484287738800D-07  .260728917585D+01  .800937414169D-07
     .923315817158D+00  .199218750000D+03 -.205913242128D+01 -.859250076929D-08
     .190722230061D-09  .100000000000D+01  .181800000000D+04  .000000000000D+00
     .340000000000D+01  .000000000000D+00 -.176951289177D-07  .940000000000D+02
     .525606000000D+06  .400000000000D+01
23 14 11 15  4  0  0.0 -.673979520798D-04 -.272848410532D-11  .000000000000D+00
     .330000000000D+02  .191875000000D+02  .495484924650D-08 -.237877816077D+01
     .774860382080D-06  .968622148503D-02  .607967376709D-05  .515370844650D+04
     .532800000000D+06  .391155481339D-07 -.260903006300D+01 -.219792127609D-06
     .950422972337D+00  .259718750000D+03 -.271915446763D+01 -.825534386821D-08
    -.110718897601D-10  .100000000000D+01  .181800000000D+04  .000000000000D+00
     .240000000000D+01  .000000000000D+00 -.200234353542D-07  .330000000000D+02
     .525606000000D+06  .400000000000D+01
24 14 11 15  4  0  0.0 -.384855084121D-04 -.682121026330D-12  .000000000000D+00
     .230000000000D+02  .112187500000D+02  .462269255370D-08 -.297681278834D+01
     .605359673500D-06  .250586390030D-02  .862963497639D-05  .515370249939D+04
     .532800000000D+06 -.409781932831D-07 -.158181633508D+01 -.353902578354D-07
     .955156289133D+00  .210406250000D+03  .209067256788D+00 -.808640825993D-08
    -.152149194768D-09  .100000000000D+01  .181800000000D+04  .000000000000D+00
     .240000000000D+01  .000000000000D+00  .279396772385D-08  .230000000000D+02
     .525606000000D+06  .400000000000D+01
25 14 11 15  4  0  0.0  .142008066177D-04 -.170530256582D-11  .000000000000D+00
     .780000000000D+02  .203750000000D+02  .422374736460D-08  .122858848161D+01
     .106915831566D-05  .377567112446D-02  .696815550327D-05  .515376983261D+04
     .532800000000D+06  .186264514923D-08 -.522894524884D+00  .689178705215D-07
     .977508313945D+00  .252125000000D+03  .698897963471D+00 -.806676458455D-08
     .136077096729D-09  .100000000000D+01  .181800000000D+04  .000000000000D+00
     .240000000000D+01  .000000000000D+00  .512227416039D-08  .780000000000D+02
     .525606000000D+06  .400000000000D+01
27 14 11 15  4  0  0.0  .299485400319D-04  .284217094304D-11  .000000000000D+00
     .880000000000D+02 -.352812500000D+02  .450447334368D-08 -.119216814417D+01
    -.180676579475D-05  .158845575061D-02  .568106770515D-05  .515368133736D+04
     .532800000000D+06  .465661287308D-07  .522463318077D+00 -.670552253723D-07
     .965351021442D+00  .274843750000D+03  .279964804881D+00 -.813283876538D-08
    -.339299847486D-10  .100000000000D+01  .181800000000D+04  .000000000000D+00
     .240000000000D+01  .000000000000D+00  .139698386192D-08  .880000000000D+02
     .525606000000D+06  .400000000000D+01
28 14 11 15  4  0  0.0  .398464035243D-03  .272848410532D-11  .000000000000D+00
     .940000000000D+02  .166562500000D+02  .411231415153D-08 -.303310576777D+00
     .968575477600D-06  .195846447023D-01  .664591789246D-05  .515368136978D+04
     .532800000000D+06 -.193715095520D-06 -.454316537273D+00  .158324837685D-06
     .988059382376D+00  .270000000000D+03 -.170063016882D+01 -.827177312398D-08
     .148577617426D-09  .100000000000D+01  .181800000000D+04  .000000000000D+00
     .240000000000D+01  .000000000000D+00 -.111758708954D-07  .940000000000D+02
     .525606000000D+06  .400000000000D+01
29 14 11 15  4  0  0.0  .573294237256D-03  .250111042988D-11  .000000000000D+00
     .670000000000D+02 -.442187500000D+02  .446554315065D-08  .163785276696D+01
    -.235065817833D-05  .113886536565D-02  .580586493015D-05  .515360172272D+04
     .532800000000D+06  .447034835815D-07  .578247134726D+00  .577419996262D-07
     .971283617998D+00  .272625000000D+03 -.844859282112D+00 -.810390898891D-08
    -.521450291926D-10  .100000000000D+01  .181800000000D+04  .000000000000D+00
     .240000000000D+01  .000000000000D+00 -.977888703346D-08  .670000000000D+02
     .525606000000D+06  .400000000000D+01
30 14 11 15  4  0  0.0 -.802804715931D-04 -.238742359215D-11  .000000000000D+00
     .280000000000D+02  .124375000000D+02  .466269421993D-08  .218612087301D+01
     .685453414917D-06  .102377310395D-02  .790692865849D-05  .515364212608D+04
     .532800000000D+06 -.558793544769D-08 -.149215459363D+01  .465661287308D-07
     .957529622095D+00  .227875000000D+03 -.307377404774D+01 -.814069623553D-08
    -.101432796512D-09  .100000000000D+01  .181800000000D+04  .000000000000D+00
     .240000000000D+01  .000000000000D+00  .325962901115D-08  .280000000000D+02
     .525606000000D+06  .400000000000D+01
32 14 11 15  4  0  0.0 -.293665565550D-03  .886757334229D-11  .000000000000D+00
     .990000000000D+02  .385937500000D+02  .472519682341D-08  .286205752092D+01
     .202655792236D-05  .114278881811D-01  .832416117191D-05  .515362187004D+04
     .532800000000D+06 -.210478901863D-06  .270352573636D+01  .186264514923D-07
     .947495051521D+00  .210437500000D+03 -.357490043352D-01 -.801319092442D-08
     .185722021782D-09  .100000000000D+01  .181800000000D+04  .000000000000D+00
     .340000000000D+01  .000000000000D+00 -.325962901115D-08  .990000000000D+02
     .525606000000D+06  .400000000000D+01
